CCSDS_OMM_VERS = 2.0
CREATION_DATE  = 
ORIGINATOR     = 

OBJECT_NAME    = STARLINK-37160
OBJECT_ID      = 2026-055W
CENTER_NAME    = EARTH
REF_FRAME      = TEME
TIME_SYSTEM    = UTC
MEAN_ELEMENT_THEORY = SGP/SGP4

EPOCH          = 2026-03-31T20:00:01.999008
MEAN_MOTION    = 15.89128603
ECCENTRICITY   = .0001095
INCLINATION    = 53.1570
RA_OF_ASC_NODE = 226.2326
ARG_OF_PERICENTER = 48.6136
MEAN_ANOMALY   = 359.5852

EPHEMERIS_TYPE = 0
CLASSIFICATION_TYPE = U
NORAD_CAT_ID   = 68282
ELEMENT_SET_NO = 999
REV_AT_EPOCH   = 319
BSTAR          = -.55923E-2
MEAN_MOTION_DOT = -.1432508E-1
MEAN_MOTION_DDOT = 0

CCSDS_OMM_VERS = 2.0
CREATION_DATE  = 
ORIGINATOR     = 

OBJECT_NAME    = STARLINK-37124
OBJECT_ID      = 2026-055X
CENTER_NAME    = EARTH
REF_FRAME      = TEME
TIME_SYSTEM    = UTC
MEAN_ELEMENT_THEORY = SGP/SGP4

EPOCH          = 2026-03-31T20:00:01.999008
MEAN_MOTION    = 15.89221791
ECCENTRICITY   = .0000946
INCLINATION    = 53.1568
RA_OF_ASC_NODE = 226.2153
ARG_OF_PERICENTER = 62.0834
MEAN_ANOMALY   = 354.3406

EPHEMERIS_TYPE = 0
CLASSIFICATION_TYPE = U
NORAD_CAT_ID   = 68283
ELEMENT_SET_NO = 999
REV_AT_EPOCH   = 319
BSTAR          = -.57021E-2
MEAN_MOTION_DOT = -.1462726E-1
MEAN_MOTION_DDOT = 0

CCSDS_OMM_VERS = 2.0
CREATION_DATE  = 
ORIGINATOR     = 

OBJECT_NAME    = STARLINK-37159
OBJECT_ID      = 2026-055Y
CENTER_NAME    = EARTH
REF_FRAME      = TEME
TIME_SYSTEM    = UTC
MEAN_ELEMENT_THEORY = SGP/SGP4

EPOCH          = 2026-03-31T20:00:01.999008
MEAN_MOTION    = 15.89238053
ECCENTRICITY   = .0001017
INCLINATION    = 53.1569
RA_OF_ASC_NODE = 226.2059
ARG_OF_PERICENTER = 55.0201
MEAN_ANOMALY   = 5.8859

EPHEMERIS_TYPE = 0
CLASSIFICATION_TYPE = U
NORAD_CAT_ID   = 68284
ELEMENT_SET_NO = 999
REV_AT_EPOCH   = 319
BSTAR          = -.57634E-2
MEAN_MOTION_DOT = -.1477411E-1
MEAN_MOTION_DDOT = 0

CCSDS_OMM_VERS = 2.0
CREATION_DATE  = 
ORIGINATOR     = 

OBJECT_NAME    = STARLINK-36725
OBJECT_ID      = 2026-055Z
CENTER_NAME    = EARTH
REF_FRAME      = TEME
TIME_SYSTEM    = UTC
MEAN_ELEMENT_THEORY = SGP/SGP4

EPOCH          = 2026-03-31T20:00:01.999008
MEAN_MOTION    = 15.89294631
ECCENTRICITY   = .000091
INCLINATION    = 53.1565
RA_OF_ASC_NODE = 226.1970
ARG_OF_PERICENTER = 62.4423
MEAN_ANOMALY   = 2.3664

EPHEMERIS_TYPE = 0
CLASSIFICATION_TYPE = U
NORAD_CAT_ID   = 68285
ELEMENT_SET_NO = 999
REV_AT_EPOCH   = 319
BSTAR          = -.5754E-2
MEAN_MOTION_DOT = -.1478928E-1
MEAN_MOTION_DDOT = 0

CCSDS_OMM_VERS = 2.0
CREATION_DATE  = 
ORIGINATOR     = 

OBJECT_NAME    = STARLINK-36998
OBJECT_ID      = 2026-055AA
CENTER_NAME    = EARTH
REF_FRAME      = TEME
TIME_SYSTEM    = UTC
MEAN_ELEMENT_THEORY = SGP/SGP4

EPOCH          = 2026-03-31T20:00:01.999008
MEAN_MOTION    = 15.89321237
ECCENTRICITY   = .0001042
INCLINATION    = 53.1573
RA_OF_ASC_NODE = 226.1802
ARG_OF_PERICENTER = 43.6919
MEAN_ANOMALY   = 30.0774

EPHEMERIS_TYPE = 0
CLASSIFICATION_TYPE = U
NORAD_CAT_ID   = 68286
ELEMENT_SET_NO = 999
REV_AT_EPOCH   = 319
BSTAR          = -.57803E-2
MEAN_MOTION_DOT = -.1486605E-1
MEAN_MOTION_DDOT = 0

CCSDS_OMM_VERS = 2.0
CREATION_DATE  = 
ORIGINATOR     = 

OBJECT_NAME    = STARLINK-37165
OBJECT_ID      = 2026-055AB
CENTER_NAME    = EARTH
REF_FRAME      = TEME
TIME_SYSTEM    = UTC
MEAN_ELEMENT_THEORY = SGP/SGP4

EPOCH          = 2026-03-31T20:00:01.999008
MEAN_MOTION    = 15.89354747
ECCENTRICITY   = .0001088
INCLINATION    = 53.1570
RA_OF_ASC_NODE = 226.1697
ARG_OF_PERICENTER = 54.6154
MEAN_ANOMALY   = 23.4265

EPHEMERIS_TYPE = 0
CLASSIFICATION_TYPE = U
NORAD_CAT_ID   = 68287
ELEMENT_SET_NO = 999
REV_AT_EPOCH   = 319
BSTAR          = -.57892E-2
MEAN_MOTION_DOT = -.1490811E-1
MEAN_MOTION_DDOT = 0

CCSDS_OMM_VERS = 2.0
CREATION_DATE  = 
ORIGINATOR     = 

OBJECT_NAME    = STARLINK-37016
OBJECT_ID      = 2026-055AC
CENTER_NAME    = EARTH
REF_FRAME      = TEME
TIME_SYSTEM    = UTC
MEAN_ELEMENT_THEORY = SGP/SGP4

EPOCH          = 2026-03-31T20:00:01.999008
MEAN_MOTION    = 15.89320975
ECCENTRICITY   = .0001008
INCLINATION    = 53.1567
RA_OF_ASC_NODE = 226.1885
ARG_OF_PERICENTER = 44.8141
MEAN_ANOMALY   = 24.3069

EPHEMERIS_TYPE = 0
CLASSIFICATION_TYPE = U
NORAD_CAT_ID   = 68288
ELEMENT_SET_NO = 999
REV_AT_EPOCH   = 319
BSTAR          = -.57699E-2
MEAN_MOTION_DOT = -.1484252E-1
MEAN_MOTION_DDOT = 0

CCSDS_OMM_VERS = 2.0
CREATION_DATE  = 
ORIGINATOR     = 

OBJECT_NAME    = STARLINK-37010
OBJECT_ID      = 2026-055AD
CENTER_NAME    = EARTH
REF_FRAME      = TEME
TIME_SYSTEM    = UTC
MEAN_ELEMENT_THEORY = SGP/SGP4

EPOCH          = 2026-03-31T20:00:01.999008
MEAN_MOTION    = 15.89413213
ECCENTRICITY   = .0001099
INCLINATION    = 53.1573
RA_OF_ASC_NODE = 226.1610
ARG_OF_PERICENTER = 55.0534
MEAN_ANOMALY   = 26.9378

EPHEMERIS_TYPE = 0
CLASSIFICATION_TYPE = U
NORAD_CAT_ID   = 68289
ELEMENT_SET_NO = 999
REV_AT_EPOCH   = 319
BSTAR          = -.57698E-2
MEAN_MOTION_DOT = -.1490355E-1
MEAN_MOTION_DDOT = 0

CCSDS_OMM_VERS = 2.0
CREATION_DATE  = 
ORIGINATOR     = 

OBJECT_NAME    = STARLINK-37151
OBJECT_ID      = 2026-055AE
CENTER_NAME    = EARTH
REF_FRAME      = TEME
TIME_SYSTEM    = UTC
MEAN_ELEMENT_THEORY = SGP/SGP4

EPOCH          = 2026-03-31T20:00:01.999008
MEAN_MOTION    = 15.89495539
ECCENTRICITY   = .0001046
INCLINATION    = 53.1567
RA_OF_ASC_NODE = 226.1538
ARG_OF_PERICENTER = 52.5902
MEAN_ANOMALY   = 33.0678

EPHEMERIS_TYPE = 0
CLASSIFICATION_TYPE = U
NORAD_CAT_ID   = 68290
ELEMENT_SET_NO = 999
REV_AT_EPOCH   = 319
BSTAR          = -.57488E-2
MEAN_MOTION_DOT = -.1491046E-1
MEAN_MOTION_DDOT = 0

CCSDS_OMM_VERS = 2.0
CREATION_DATE  = 
ORIGINATOR     = 

OBJECT_NAME    = STRIX-6
OBJECT_ID      = 2026-056A
CENTER_NAME    = EARTH
REF_FRAME      = TEME
TIME_SYSTEM    = UTC
MEAN_ELEMENT_THEORY = SGP/SGP4

EPOCH          = 2026-03-31T20:16:10.372800
MEAN_MOTION    = 14.99644823
ECCENTRICITY   = .0016545
INCLINATION    = 50.2846
RA_OF_ASC_NODE = 355.2584
ARG_OF_PERICENTER = 307.6354
MEAN_ANOMALY   = 52.3093

EPHEMERIS_TYPE = 0
CLASSIFICATION_TYPE = U
NORAD_CAT_ID   = 68291
ELEMENT_SET_NO = 999
REV_AT_EPOCH   = 166
BSTAR          = .4923E-3
MEAN_MOTION_DOT = .5893E-4
MEAN_MOTION_DDOT = 0

CCSDS_OMM_VERS = 2.0
CREATION_DATE  = 
ORIGINATOR     = 

OBJECT_NAME    = ELECTRON KICK STAGE R/B
OBJECT_ID      = 2026-056C
CENTER_NAME    = EARTH
REF_FRAME      = TEME
TIME_SYSTEM    = UTC
MEAN_ELEMENT_THEORY = SGP/SGP4

EPOCH          = 2026-03-31T18:08:39.769440
MEAN_MOTION    = 15.40254826
ECCENTRICITY   = .0155494
INCLINATION    = 50.2918
RA_OF_ASC_NODE = 352.4295
ARG_OF_PERICENTER = 55.4593
MEAN_ANOMALY   = 306.0940

EPHEMERIS_TYPE = 0
CLASSIFICATION_TYPE = U
NORAD_CAT_ID   = 68293
ELEMENT_SET_NO = 999
REV_AT_EPOCH   = 170
BSTAR          = .15907E-2
MEAN_MOTION_DOT = .101387E-2
MEAN_MOTION_DDOT = 0

CCSDS_OMM_VERS = 2.0
CREATION_DATE  = 
ORIGINATOR     = 

OBJECT_NAME    = STARLINK-37107
OBJECT_ID      = 2026-057A
CENTER_NAME    = EARTH
REF_FRAME      = TEME
TIME_SYSTEM    = UTC
MEAN_ELEMENT_THEORY = SGP/SGP4

EPOCH          = 2026-03-31T20:00:01.999008
MEAN_MOTION    = 15.94661975
ECCENTRICITY   = .0001492
INCLINATION    = 97.2806
RA_OF_ASC_NODE = 214.2030
ARG_OF_PERICENTER = 85.9732
MEAN_ANOMALY   = 99.5384

EPHEMERIS_TYPE = 0
CLASSIFICATION_TYPE = U
NORAD_CAT_ID   = 68294
ELEMENT_SET_NO = 999
REV_AT_EPOCH   = 272
BSTAR          = -.35998E-2
MEAN_MOTION_DOT = -.1354219E-1
MEAN_MOTION_DDOT = .54242E-3

