STARLINK-37160          
1 68282U 26055W   26090.83335647 -.01432508  00000+0 -55923-2 0  9990
2 68282  53.1570 226.2326 0001095  48.6136 359.5852 15.89128603  3198
STARLINK-37124          
1 68283U 26055X   26090.83335647 -.01462726  00000+0 -57021-2 0  9997
2 68283  53.1568 226.2153 0000946  62.0834 354.3406 15.89221791  3193
STARLINK-37159          
1 68284U 26055Y   26090.83335647 -.01477411  00000+0 -57634-2 0  9995
2 68284  53.1569 226.2059 0001017  55.0201   5.8859 15.89238053  3199
STARLINK-36725          
1 68285U 26055Z   26090.83335647 -.01478928  00000+0 -57540-2 0  9996
2 68285  53.1565 226.1970 0000910  62.4423   2.3664 15.89294631  3196
STARLINK-36998          
1 68286U 26055AA  26090.83335647 -.01486605  00000+0 -57803-2 0  9990
2 68286  53.1573 226.1802 0001042  43.6919  30.0774 15.89321237  3191
STARLINK-37165          
1 68287U 26055AB  26090.83335647 -.01490811  00000+0 -57892-2 0  9993
2 68287  53.1570 226.1697 0001088  54.6154  23.4265 15.89354747  3197
STARLINK-37016          
1 68288U 26055AC  26090.83335647 -.01484252  00000+0 -57699-2 0  9991
2 68288  53.1567 226.1885 0001008  44.8141  24.3069 15.89320975  3190
STARLINK-37010          
1 68289U 26055AD  26090.83335647 -.01490355  00000+0 -57698-2 0  9992
2 68289  53.1573 226.1610 0001099  55.0534  26.9378 15.89413213  3193
STARLINK-37151          
1 68290U 26055AE  26090.83335647 -.01491046  00000+0 -57488-2 0  9999
2 68290  53.1567 226.1538 0001046  52.5902  33.0678 15.89495539  3193
STRIX-6                 
1 68291U 26056A   26090.84456450  .00005893  00000+0  49230-3 0  9993
2 68291  50.2846 355.2584 0016545 307.6354  52.3093 14.99644823  1669
ELECTRON KICK STAGE R/B 
1 68293U 26056C   26090.75601585  .00101387  00000+0  15907-2 0  9994
2 68293  50.2918 352.4295 0155494  55.4593 306.0940 15.40254826  1701
STARLINK-37107          
1 68294U 26057A   26090.83335647 -.01354219  54242-3 -35998-2 0  9998
2 68294  97.2806 214.2030 0001492  85.9732  99.5384 15.94661975  2727
